OBJECT_NAME,OBJECT_ID,EPOCH,MEAN_MOTION,ECCENTRICITY,INCLINATION,RA_OF_ASC_NODE,ARG_OF_PERICENTER,MEAN_ANOMALY,EPHEMERIS_TYPE,CLASSIFICATION_TYPE,NORAD_CAT_ID,ELEMENT_SET_NO,REV_AT_EPOCH,BSTAR,MEAN_MOTION_DOT,MEAN_MOTION_DDOT
ONEWEB-0605,2022-166AD,2026-07-02T13:55:12.864864,13.21827585,.0002233,87.9245,240.9242,81.0086,279.1301,0,U,54669,999,17354,.91006E-4,.51E-6,0
ONEWEB-0606,2022-166AE,2026-07-02T14:26:41.612064,13.21824907,.0002077,87.9252,240.9323,101.7841,258.3526,0,U,54670,999,17360,-.14659E-3,-.48E-6,0
ONEWEB-0607,2022-166AF,2026-07-02T04:33:15.721920,13.21825973,.00019246,87.9250,240.9862,96.0678,264.0675,0,U,54671,999,17352,.2586784E-3,.12E-5,0
ONEWEB-0608,2022-166AG,2026-07-02T13:47:54.466080,13.21825563,.0001952,87.9255,240.9069,82.9456,277.1899,0,U,54672,999,17358,-.86166E-3,-.343E-5,0
ONEWEB-0610,2022-166AH,2026-07-02T04:13:52.988736,13.21825687,.0001667,87.9244,240.9987,82.1846,277.9477,0,U,54673,999,17343,.25548978E-3,.119E-5,0
ONEWEB-0611,2022-166AJ,2026-07-02T04:04:09.864768,13.21825858,.00021807,87.9242,240.9958,100.5821,259.5558,0,U,54674,999,17342,.47442647E-4,.33E-6,0
ONEWEB-0612,2022-166AK,2026-07-02T04:23:34.378656,13.21826590,.00019939,87.9254,240.9903,93.1601,266.9761,0,U,54675,999,17341,-.86996224E-4,-.23E-6,0
ONEWEB-0615,2022-166AL,2026-07-02T18:26:30.535008,13.21827618,.000213,87.9245,240.8871,104.6259,255.5111,0,U,54676,999,17350,.76783E-4,.45E-6,0
ONEWEB-0655,2022-166AM,2026-07-02T14:14:35.227392,13.21827780,.0001787,87.9246,240.9231,98.9146,261.2191,0,U,54677,999,17347,.1604E-3,.79E-6,0
ONEWEB-0659,2022-166AN,2026-07-02T14:38:48.524640,13.21829120,.0002085,87.9243,240.9194,96.9032,263.2339,0,U,54678,999,17356,.67496E-4,.41E-6,0
ONEWEB-0685,2022-166AP,2026-07-02T14:38:35.111904,13.21848109,.0001839,87.9240,240.9111,87.5172,272.6172,0,U,54679,999,17345,-.26377E-4,.2E-7,0
ONEWEB-0712,2022-166AQ,2026-07-02T13:31:17.484384,13.16595300,.0001599,87.9086,225.7212,102.0437,258.0873,0,U,54680,999,17408,.22563E-3,.99E-6,0
ONEWEB-0714,2022-166AR,2026-07-02T03:52:04.799424,13.21825585,.00018374,87.9247,240.9984,104.4413,255.6925,0,U,54681,999,17351,.20599675E-3,.98E-6,0
ONEWEB-0532,2023-004A,2026-07-02T18:01:51.093984,13.17648349,.0002155,87.9131,2.7677,84.0588,276.0789,0,U,55140,999,16963,.74759E-4,.42E-6,0
ONEWEB-0533,2023-004B,2026-07-02T16:54:57.351744,13.12441442,.0001674,87.8952,347.5840,89.1942,270.9379,0,U,55141,999,17009,-.85893E-3,-.296E-5,0
ONEWEB-0541,2023-004C,2026-07-02T12:25:51.273120,13.11417197,.000201,87.8888,18.0066,90.2215,269.9143,0,U,55142,999,16795,.69428E-3,.259E-5,0
ONEWEB-0543,2023-004D,2026-07-02T15:25:27.221952,13.18687080,.0001696,87.9175,332.3940,101.5817,258.5506,0,U,55143,999,17173,.20468E-3,.94E-6,0
ONEWEB-0544,2023-004E,2026-07-02T09:47:57.533856,13.18686860,.0001902,87.9174,332.4405,102.5030,257.6315,0,U,55144,999,17170,.1316E-3,.65E-6,0
ONEWEB-0560,2023-004F,2026-07-02T16:55:16.440096,13.18688019,.0001869,87.9175,332.3709,105.2452,254.8887,0,U,55145,999,17175,-.79787E-4,-.19E-6,0
ONEWEB-0565,2023-004G,2026-07-02T16:45:35.580672,13.18685976,.000224,87.9169,332.3987,99.7932,260.3453,0,U,55146,999,17174,.63832E-4,.38E-6,0
ONEWEB-0567,2023-004H,2026-07-02T16:35:52.620864,13.18686992,.0002169,87.9174,332.3856,102.5890,257.5485,0,U,55147,999,17174,-.72302E-5,.1E-6,0
ONEWEB-0569,2023-004J,2026-07-02T14:59:19.029120,13.13471057,.0002317,87.8977,317.1474,121.0514,239.0842,0,U,55148,999,17220,-.66129E-3,-.229E-5,0
ONEWEB-0570,2023-004K,2026-07-02T16:23:43.882656,13.18685799,.0002197,87.9176,332.3849,89.5241,270.6143,0,U,55149,999,17173,-.10302E-4,.9E-7,0
ONEWEB-0571,2023-004L,2026-07-02T10:46:14.265408,13.18685779,.0002845,87.9180,332.4319,113.4721,246.6710,0,U,55150,999,17171,-.18255E-3,-.59E-6,0
ONEWEB-0572,2023-004M,2026-07-02T18:46:49.703808,13.17641665,.0002074,87.9134,2.7623,92.6969,267.4400,0,U,55151,999,16953,.24877E-2,.979E-5,0
ONEWEB-0573,2023-004N,2026-07-02T16:04:17.880960,13.18686702,.000265,87.9177,332.3886,105.8249,254.3175,0,U,55152,999,17173,-.73912E-4,-.16E-6,0
ONEWEB-0588,2023-004P,2026-07-02T15:54:36.059904,13.18686312,.0002319,87.9175,332.3899,89.8686,270.2712,0,U,55153,999,17173,.13438E-4,.18E-6,0
ONEWEB-0598,2023-004Q,2026-07-02T19:13:34.269312,13.11416532,.0002247,87.8879,17.9596,105.8673,254.2703,0,U,55154,999,16794,-.14806E-2,-.512E-5,0
ONEWEB-0599,2023-004R,2026-07-02T17:50:55.222944,13.17650078,.000173,87.9135,2.7685,96.8943,263.2385,0,U,55155,999,16953,-.12516E-4,.8E-7,0
ONEWEB-0614,2023-004S,2026-07-02T19:06:14.496768,13.11415506,.0001938,87.8873,17.9693,82.0984,278.0364,0,U,55156,999,16788,-.1478E-2,-.511E-5,0
