[{"name":"ONEWEB-0605","l1":"1 54669U 22166AD  26183.58001001  .00000051  00000+0  91006-4 0  9997","l2":"2 54669  87.9245 240.9242 0002233  81.0086 279.1301 13.21827585173548","cat":"starlink"},{"name":"ONEWEB-0606","l1":"1 54670U 22166AE  26183.60187051 -.00000048  00000+0 -14659-3 0  9998","l2":"2 54670  87.9252 240.9323 0002077 101.7841 258.3526 13.21824907173603","cat":"starlink"},{"name":"ONEWEB-0607","l1":"1 54671U 22166AF  26183.18976530  .00000120  00000+0  25868-3 0  9993","l2":"2 54671  87.9250 240.9862 0001924  96.0678 264.0675 13.21825973173528","cat":"starlink"},{"name":"ONEWEB-0608","l1":"1 54672U 22166AG  26183.57493595 -.00000343  00000+0 -86166-3 0  9999","l2":"2 54672  87.9255 240.9069 0001952  82.9456 277.1899 13.21825563173586","cat":"starlink"},{"name":"ONEWEB-0610","l1":"1 54673U 22166AH  26183.17630774  .00000119  00000+0  25549-3 0  9995","l2":"2 54673  87.9244 240.9987 0001667  82.1846 277.9477 13.21825687173433","cat":"starlink"},{"name":"ONEWEB-0611","l1":"1 54674U 22166AJ  26183.16955862  .00000033  00000+0  47443-4 0  9996","l2":"2 54674  87.9242 240.9958 0002180 100.5821 259.5558 13.21825858173424","cat":"starlink"},{"name":"ONEWEB-0612","l1":"1 54675U 22166AK  26183.18303679 -.00000023  00000+0 -86996-4 0  9999","l2":"2 54675  87.9254 240.9903 0001993  93.1601 266.9761 13.21826590173413","cat":"starlink"},{"name":"ONEWEB-0615","l1":"1 54676U 22166AL  26183.76840897  .00000045  00000+0  76783-4 0  9997","l2":"2 54676  87.9245 240.8871 0002130 104.6259 255.5111 13.21827618173503","cat":"starlink"},{"name":"ONEWEB-0655","l1":"1 54677U 22166AM  26183.59346328  .00000079  00000+0  16040-3 0  9995","l2":"2 54677  87.9246 240.9231 0001787  98.9146 261.2191 13.21827780173471","cat":"starlink"},{"name":"ONEWEB-0659","l1":"1 54678U 22166AN  26183.61028385  .00000041  00000+0  67496-4 0  9990","l2":"2 54678  87.9243 240.9194 0002085  96.9032 263.2339 13.21829120173567","cat":"starlink"},{"name":"ONEWEB-0685","l1":"1 54679U 22166AP  26183.61012861  .00000002  00000+0 -26377-4 0  9994","l2":"2 54679  87.9240 240.9111 0001839  87.5172 272.6172 13.21848109173456","cat":"starlink"},{"name":"ONEWEB-0712","l1":"1 54680U 22166AQ  26183.56339681  .00000099  00000+0  22563-3 0  9999","l2":"2 54680  87.9086 225.7212 0001599 102.0437 258.0873 13.16595300174081","cat":"starlink"},{"name":"ONEWEB-0714","l1":"1 54681U 22166AR  26183.16116666  .00000098  00000+0  20600-3 0  9991","l2":"2 54681  87.9247 240.9984 0001837 104.4413 255.6925 13.21825585173516","cat":"starlink"},{"name":"ONEWEB-0532","l1":"1 55140U 23004A   26183.75128581  .00000042  00000+0  74759-4 0  9992","l2":"2 55140  87.9131   2.7677 0002155  84.0588 276.0789 13.17648349169631","cat":"starlink"},{"name":"ONEWEB-0533","l1":"1 55141U 23004B   26183.70483046 -.00000296  00000+0 -85893-3 0  9991","l2":"2 55141  87.8952 347.5840 0001674  89.1942 270.9379 13.12441442170099","cat":"starlink"},{"name":"ONEWEB-0541","l1":"1 55142U 23004C   26183.51795455  .00000259  00000+0  69428-3 0  9994","l2":"2 55142  87.8888  18.0066 0002010  90.2215 269.9143 13.11417197167956","cat":"starlink"},{"name":"ONEWEB-0543","l1":"1 55143U 23004D   26183.64267618  .00000094  00000+0  20468-3 0  9992","l2":"2 55143  87.9175 332.3940 0001696 101.5817 258.5506 13.18687080171738","cat":"starlink"},{"name":"ONEWEB-0544","l1":"1 55144U 23004E   26183.40830479  .00000065  00000+0  13160-3 0  9997","l2":"2 55144  87.9174 332.4405 0001902 102.5030 257.6315 13.18686860171703","cat":"starlink"},{"name":"ONEWEB-0560","l1":"1 55145U 23004F   26183.70505139 -.00000019  00000+0 -79787-4 0  9992","l2":"2 55145  87.9175 332.3709 0001869 105.2452 254.8887 13.18688019171757","cat":"starlink"},{"name":"ONEWEB-0565","l1":"1 55146U 23004G   26183.69832848  .00000038  00000+0  63832-4 0  9994","l2":"2 55146  87.9169 332.3987 0002240  99.7932 260.3453 13.18685976171742","cat":"starlink"},{"name":"ONEWEB-0567","l1":"1 55147U 23004H   26183.69158126  .00000010  00000+0 -72302-5 0  9999","l2":"2 55147  87.9174 332.3856 0002169 102.5890 257.5485 13.18686992171742","cat":"starlink"},{"name":"ONEWEB-0569","l1":"1 55148U 23004J   26183.62452580 -.00000229  00000+0 -66129-3 0  9995","l2":"2 55148  87.8977 317.1474 0002317 121.0514 239.0842 13.13471057172207","cat":"starlink"},{"name":"ONEWEB-0570","l1":"1 55149U 23004K   26183.68314679  .00000009  00000+0 -10302-4 0  9996","l2":"2 55149  87.9176 332.3849 0002197  89.5241 270.6143 13.18685799171733","cat":"starlink"},{"name":"ONEWEB-0571","l1":"1 55150U 23004L   26183.44877622 -.00000059  00000+0 -18255-3 0  9994","l2":"2 55150  87.9180 332.4319 0002845 113.4721 246.6710 13.18685779171712","cat":"starlink"},{"name":"ONEWEB-0572","l1":"1 55151U 23004M   26183.78251972  .00000979  00000+0  24877-2 0  9991","l2":"2 55151  87.9134   2.7623 0002074  92.6969 267.4400 13.17641665169532","cat":"starlink"},{"name":"ONEWEB-0573","l1":"1 55152U 23004N   26183.66965140 -.00000016  00000+0 -73912-4 0  9998","l2":"2 55152  87.9177 332.3886 0002650 105.8249 254.3175 13.18686702171732","cat":"starlink"},{"name":"ONEWEB-0588","l1":"1 55153U 23004P   26183.66291736  .00000018  00000+0  13438-4 0  9999","l2":"2 55153  87.9175 332.3899 0002319  89.8686 270.2712 13.18686312171734","cat":"starlink"},{"name":"ONEWEB-0598","l1":"1 55154U 23004Q   26183.80109108 -.00000512  00000+0 -14806-2 0  9996","l2":"2 55154  87.8879  17.9596 0002247 105.8673 254.2703 13.11416532167948","cat":"starlink"},{"name":"ONEWEB-0599","l1":"1 55155U 23004R   26183.74369471  .00000008  00000+0 -12516-4 0  9998","l2":"2 55155  87.9135   2.7685 0001730  96.8943 263.2385 13.17650078169535","cat":"starlink"},{"name":"ONEWEB-0614","l1":"1 55156U 23004S   26183.79600112 -.00000511  00000+0 -14780-2 0  9997","l2":"2 55156  87.8873  17.9693 0001938  82.0984 278.0364 13.11415506167889","cat":"starlink"}]